{
    "links": {
        "self": "http://www.neowsapp.com/rest/v1/neo/3761484?api_key=iIulBulltgU6a56xZRHN4H3l9WmuAYTsLGpBGhQ2"
    },
    "id": "3761484",
    "neo_reference_id": "3761484",
    "name": "(2016 TV93)",
    "designation": "2016 TV93",
    "nasa_jpl_url": "http://ssd.jpl.nasa.gov/sbdb.cgi?sstr=3761484",
    "absolute_magnitude_h": 24.5,
    "estimated_diameter": {
        "kilometers": {
            "estimated_diameter_min": 0.0334622374,
            "estimated_diameter_max": 0.0748238376
        },
        "meters": {
            "estimated_diameter_min": 33.4622374455,
            "estimated_diameter_max": 74.8238376074
        },
        "miles": {
            "estimated_diameter_min": 0.0207924639,
            "estimated_diameter_max": 0.0464933628
        },
        "feet": {
            "estimated_diameter_min": 109.7842471007,
            "estimated_diameter_max": 245.4850393757
        }
    },
    "is_potentially_hazardous_asteroid": false,
    "close_approach_data": [
        {
            "close_approach_date": "2016-10-18",
            "close_approach_date_full": "2016-Oct-18 02:42",
            "epoch_date_close_approach": 1476758520000,
            "relative_velocity": {
                "kilometers_per_second": "6.8052990578",
                "kilometers_per_hour": "24499.0766081872",
                "miles_per_hour": "15222.7734624594"
            },
            "miss_distance": {
                "astronomical": "0.1312877646",
                "lunar": "51.0709404294",
                "kilometers": "19640369.941221402",
                "miles": "12203959.9763312676"
            },
            "orbiting_body": "Earth"
        }
    ],
    "orbital_data": {
        "orbit_id": "9",
        "orbit_determination_date": "2017-04-06 08:22:58",
        "first_observation_date": "2016-10-12",
        "last_observation_date": "2016-11-10",
        "data_arc_in_days": 29,
        "observations_used": 31,
        "orbit_uncertainty": "8",
        "minimum_orbit_intersection": ".114572",
        "jupiter_tisserand_invariant": "3.006",
        "epoch_osculation": "2457678.5",
        "eccentricity": ".6092313649080822",
        "semi_major_axis": "2.832404510793223",
        "inclination": "2.017572402226529",
        "ascending_node_longitude": "187.2891883056101",
        "orbital_period": "1741.130578708669",
        "perihelion_distance": "1.106814844710859",
        "perihelion_argument": "208.8821134928518",
        "aphelion_distance": "4.557994176875587",
        "perihelion_time": "2457686.904645669765",
        "mean_anomaly": "358.2622369177162",
        "mean_motion": ".2067622063515756",
        "equinox": "J2000",
        "orbit_class": {
            "orbit_class_type": "AMO",
            "orbit_class_description": "Near-Earth asteroid orbits similar to that of 1221 Amor",
            "orbit_class_range": "1.017 AU < q (perihelion) < 1.3 AU"
        }
    },
    "is_sentry_object": false
}